ONEWEB-0291             
1 49081U 21075G   25092.05007802 -.00000008  00000+0 -54128-4 0  9990
2 49081  87.8996  93.7185 0001682  94.2213 265.9111 13.17650420176505
ONEWEB-0293             
1 49082U 21075H   25091.92351418  .00000073  00000+0  15545-3 0  9990
2 49082  87.9002  93.7723 0001795  86.5890 273.5446 13.17651558175523
ONEWEB-0294             
1 49083U 21075J   25092.22118425 -.00000414  00000+0 -11871-2 0  9992
2 49083  87.8815  78.4045 0001344  81.1247 279.0034 13.12443016177720
ONEWEB-0295             
1 49084U 21075K   25091.92267536  .00000063  00000+0  12824-3 0  9995
2 49084  87.9015  93.7554 0001712 100.1723 259.9601 13.17649746175480
ONEWEB-0296             
1 49085U 21075L   25091.97301179 -.00000106  00000+0 -33140-3 0  9997
2 49085  87.8814  78.4609 0001369 100.4989 259.6294 13.12441592176708
ONEWEB-0297             
1 49086U 21075M   25091.92760024  .00000036  00000+0  65537-4 0  9997
2 49086  87.8822  78.4985 0001925  88.9014 271.2335 13.12444417177304
ONEWEB-0298             
1 49087U 21075N   25091.92701222  .00000054  00000+0  10688-3 0  9999
2 49087  87.9003  93.7689 0001994  94.8898 265.2461 13.17651921175519
ONEWEB-0299             
1 49088U 21075P   25091.92856390  .00000113  00000+0  25904-3 0  9990
2 49088  87.8999  93.7254 0001999  95.6946 264.4413 13.17647458175494
